[{"OBJECT_NAME":"TEMPSAT 1","OBJECT_ID":"1965-065E","EPOCH":"2026-03-09T23:04:19.834752","MEAN_MOTION":13.33589233,"ECCENTRICITY":0.00702466,"INCLINATION":89.9938,"RA_OF_ASC_NODE":212.5862,"ARG_OF_PERICENTER":165.9273,"MEAN_ANOMALY":317.9391,"EPHEMERIS_TYPE":0,"CLASSIFICATION_TYPE":"U","NORAD_CAT_ID":1512,"ELEMENT_SET_NO":999,"REV_AT_EPOCH":94682,"BSTAR":8.3668831e-5,"MEAN_MOTION_DOT":5.1e-7,"MEAN_MOTION_DDOT":0},{"OBJECT_NAME":"CZ-4C DEB","OBJECT_ID":"2018-034G","EPOCH":"2026-03-09T22:03:57.590784","MEAN_MOTION":13.44715724,"ECCENTRICITY":0.02634938,"INCLINATION":63.3999,"RA_OF_ASC_NODE":358.8366,"ARG_OF_PERICENTER":7.4142,"MEAN_ANOMALY":353.0662,"EPHEMERIS_TYPE":0,"CLASSIFICATION_TYPE":"U","NORAD_CAT_ID":43281,"ELEMENT_SET_NO":999,"REV_AT_EPOCH":32432,"BSTAR":0.00028053451,"MEAN_MOTION_DOT":1.12e-6,"MEAN_MOTION_DDOT":0}]
